<?xml version="1.0" encoding="UTF-8"?>
<kml xmlns="http://www.opengis.net/kml/2.2">
    <Document>

        <Placemark>
            <name>Test Point</name>
            <Point>
                <coordinates>77.5946,12.9716</coordinates>
            </Point>
        </Placemark>

        <Placemark>
            <name>Test Line</name>
            <LineString>
                <coordinates>
                    77.5946,12.9716
                    77.6046,12.9716
                </coordinates>
            </LineString>
        </Placemark>

        <Placemark>
            <name>Test Polygon</name>
            <Polygon>
                <outerBoundaryIs>
                    <LinearRing>
                        <coordinates>
                            77.5946,12.9716
                            77.6046,12.9716
                            77.6046,12.9816
                            77.5946,12.9816
                            77.5946,12.9716
                        </coordinates>
                    </LinearRing>
                </outerBoundaryIs>
            </Polygon>
        </Placemark>

    </Document>
</kml>